0 SL-8 R/B
1 13168U 82040J   13281.49431649  .00000083  00000-0  87689-3 0  4142
2 13168 074.0507 068.2023 0135912 038.3383 016.6911 12.22865345403058
0 SL-8 R/B
1 13168U 82040J   13283.80670328  .00000056  00000-0  63515-3 0  4151
2 13168 074.0512 065.2852 0135961 035.0266 116.5482 12.22865989403337
0 SL-8 R/B
1 13168U 82040J   13285.84263475  .00000068  00000-0  74306-3 0  4162
2 13168 074.0518 062.7170 0135983 032.0969 079.3835 12.22865567403586
0 SL-8 R/B
1 13168U 82040J   13287.97526380  .00000003  00000-0  15211-3 0  4175
2 13168 074.0524 060.0269 0136006 029.0304 107.9042 12.22866213403845
0 SL-8 R/B
1 13168U 82040J   13290.49941017  .00000027  00000-0  36996-3 0  4184
2 13168 074.0529 056.8432 0136045 025.4158 060.0026 12.22866158404159
0 SL-8 R/B
1 13168U 82040J   13292.80678082  .00000092  00000-0  96573-3 0  4190
2 13168 074.0529 053.9328 0136078 022.1076 137.7928 12.22865539404436
0 SL-8 R/B
1 13168U 82040J   13295.08323023 -.00000006  00000-0  79798-4 0  4204
2 13168 074.0531 051.0615 0136125 018.8514 079.4394 12.22866656404710
